[{"OBJECT_NAME":"SCD 1","OBJECT_ID":"1993-009B","EPOCH":"2026-04-27T05:35:47.140800","MEAN_MOTION":14.46097356,"ECCENTRICITY":0.00417712,"INCLINATION":24.9681,"RA_OF_ASC_NODE":162.1804,"ARG_OF_PERICENTER":319.0852,"MEAN_ANOMALY":94.0427,"EPHEMERIS_TYPE":0,"CLASSIFICATION_TYPE":"U","NORAD_CAT_ID":22490,"ELEMENT_SET_NO":999,"REV_AT_EPOCH":75373,"BSTAR":7.9042196e-5,"MEAN_MOTION_DOT":4.75e-6,"MEAN_MOTION_DDOT":0},{"OBJECT_NAME":"TECHSAT 1B (GO-32)","OBJECT_ID":"1998-043D","EPOCH":"2026-04-26T20:34:10.254432","MEAN_MOTION":14.24417863,"ECCENTRICITY":0.00017579,"INCLINATION":99.0062,"RA_OF_ASC_NODE":108.3254,"ARG_OF_PERICENTER":42.3066,"MEAN_ANOMALY":317.8248,"EPHEMERIS_TYPE":0,"CLASSIFICATION_TYPE":"U","NORAD_CAT_ID":25397,"ELEMENT_SET_NO":999,"REV_AT_EPOCH":44402,"BSTAR":4.814078e-5,"MEAN_MOTION_DOT":6.5e-7,"MEAN_MOTION_DDOT":0},{"OBJECT_NAME":"SCD 2","OBJECT_ID":"1998-060A","EPOCH":"2026-04-27T03:54:44.174592","MEAN_MOTION":14.45506063,"ECCENTRICITY":0.0016548,"INCLINATION":24.9966,"RA_OF_ASC_NODE":26.8182,"ARG_OF_PERICENTER":304.2749,"MEAN_ANOMALY":207.5522,"EPHEMERIS_TYPE":0,"CLASSIFICATION_TYPE":"U","NORAD_CAT_ID":25504,"ELEMENT_SET_NO":999,"REV_AT_EPOCH":45293,"BSTAR":7.1195664e-5,"MEAN_MOTION_DOT":4.37e-6,"MEAN_MOTION_DDOT":0},{"OBJECT_NAME":"DLR-TUBSAT","OBJECT_ID":"1999-029B","EPOCH":"2026-04-27T05:53:28.680576","MEAN_MOTION":14.52413049,"ECCENTRICITY":0.00148983,"INCLINATION":98.6692,"RA_OF_ASC_NODE":111.077,"ARG_OF_PERICENTER":141.4495,"MEAN_ANOMALY":218.7766,"EPHEMERIS_TYPE":0,"CLASSIFICATION_TYPE":"U","NORAD_CAT_ID":25757,"ELEMENT_SET_NO":999,"REV_AT_EPOCH":42585,"BSTAR":3.8288275e-5,"MEAN_MOTION_DOT":1.08e-6,"MEAN_MOTION_DDOT":0},{"OBJECT_NAME":"TERRA","OBJECT_ID":"1999-068A","EPOCH":"2026-04-27T06:31:39.515232","MEAN_MOTION":14.61061586,"ECCENTRICITY":0.00031399,"INCLINATION":97.9501,"RA_OF_ASC_NODE":168.8266,"ARG_OF_PERICENTER":53.9282,"MEAN_ANOMALY":10.619,"EPHEMERIS_TYPE":0,"CLASSIFICATION_TYPE":"U","NORAD_CAT_ID":25994,"ELEMENT_SET_NO":999,"REV_AT_EPOCH":40217,"BSTAR":9.6778964e-5,"MEAN_MOTION_DOT":4.31e-6,"MEAN_MOTION_DDOT":0},{"OBJECT_NAME":"MAROC-TUBSAT","OBJECT_ID":"2001-056D","EPOCH":"2026-04-27T06:42:30.485664","MEAN_MOTION":13.70260262,"ECCENTRICITY":0.00190389,"INCLINATION":99.8061,"RA_OF_ASC_NODE":293.1828,"ARG_OF_PERICENTER":273.4806,"MEAN_ANOMALY":266.3524,"EPHEMERIS_TYPE":0,"CLASSIFICATION_TYPE":"U","NORAD_CAT_ID":27004,"ELEMENT_SET_NO":999,"REV_AT_EPOCH":21921,"BSTAR":4.0490746e-5,"MEAN_MOTION_DOT":-1.1e-7,"MEAN_MOTION_DDOT":0},{"OBJECT_NAME":"AQUA","OBJECT_ID":"2002-022A","EPOCH":"2026-04-27T06:49:14.752992","MEAN_MOTION":14.62076657,"ECCENTRICITY":0.00020497,"INCLINATION":98.4245,"RA_OF_ASC_NODE":85.5642,"ARG_OF_PERICENTER":94.5121,"MEAN_ANOMALY":10.6715,"EPHEMERIS_TYPE":0,"CLASSIFICATION_TYPE":"U","NORAD_CAT_ID":27424,"ELEMENT_SET_NO":999,"REV_AT_EPOCH":27583,"BSTAR":0.00019381396,"MEAN_MOTION_DOT":9.24e-6,"MEAN_MOTION_DDOT":0},{"OBJECT_NAME":"SHIYAN-1 (SY-1)","OBJECT_ID":"2004-012A","EPOCH":"2026-04-27T04:59:05.305920","MEAN_MOTION":15.32432763,"ECCENTRICITY":0.00059133,"INCLINATION":97.8706,"RA_OF_ASC_NODE":192.0174,"ARG_OF_PERICENTER":186.077,"MEAN_ANOMALY":174.0399,"EPHEMERIS_TYPE":0,"CLASSIFICATION_TYPE":"U","NORAD_CAT_ID":28220,"ELEMENT_SET_NO":999,"REV_AT_EPOCH":20328,"BSTAR":0.00059352338,"MEAN_MOTION_DOT":0.00018536,"MEAN_MOTION_DDOT":0},{"OBJECT_NAME":"AURA","OBJECT_ID":"2004-026A","EPOCH":"2026-04-27T05:56:14.454528","MEAN_MOTION":14.61248172,"ECCENTRICITY":0.00017004,"INCLINATION":98.3382,"RA_OF_ASC_NODE":73.2937,"ARG_OF_PERICENTER":84.8439,"MEAN_ANOMALY":275.2956,"EPHEMERIS_TYPE":0,"CLASSIFICATION_TYPE":"U","NORAD_CAT_ID":28376,"ELEMENT_SET_NO":999,"REV_AT_EPOCH":15877,"BSTAR":0.00019332187,"MEAN_MOTION_DOT":9.05e-6,"MEAN_MOTION_DDOT":0},{"OBJECT_NAME":"IRS-P5 (CARTOSAT-1)","OBJECT_ID":"2005-017A","EPOCH":"2026-04-27T01:45:44.429760","MEAN_MOTION":14.90914038,"ECCENTRICITY":0.00010745,"INCLINATION":97.5349,"RA_OF_ASC_NODE":142.4522,"ARG_OF_PERICENTER":131.3352,"MEAN_ANOMALY":228.7959,"EPHEMERIS_TYPE":0,"CLASSIFICATION_TYPE":"U","NORAD_CAT_ID":28649,"ELEMENT_SET_NO":999,"REV_AT_EPOCH":13620,"BSTAR":0.00015040554,"MEAN_MOTION_DOT":1.431e-5,"MEAN_MOTION_DDOT":0},{"OBJECT_NAME":"SINAH 1","OBJECT_ID":"2005-043D","EPOCH":"2026-04-27T06:39:37.905984","MEAN_MOTION":14.64121753,"ECCENTRICITY":0.00156969,"INCLINATION":98.2781,"RA_OF_ASC_NODE":251.3218,"ARG_OF_PERICENTER":77.4325,"MEAN_ANOMALY":282.8632,"EPHEMERIS_TYPE":0,"CLASSIFICATION_TYPE":"U","NORAD_CAT_ID":28893,"ELEMENT_SET_NO":999,"REV_AT_EPOCH":9307,"BSTAR":9.0708366e-5,"MEAN_MOTION_DOT":4.28e-6,"MEAN_MOTION_DDOT":0},{"OBJECT_NAME":"RESURS-DK 1","OBJECT_ID":"2006-021A","EPOCH":"2026-04-27T06:20:30.063840","MEAN_MOTION":15.12995223,"ECCENTRICITY":0.00034222,"INCLINATION":69.9312,"RA_OF_ASC_NODE":111.3487,"ARG_OF_PERICENTER":338.1087,"MEAN_ANOMALY":21.9933,"EPHEMERIS_TYPE":0,"CLASSIFICATION_TYPE":"U","NORAD_CAT_ID":29228,"ELEMENT_SET_NO":999,"REV_AT_EPOCH":9487,"BSTAR":0.00017989285,"MEAN_MOTION_DOT":3.076e-5,"MEAN_MOTION_DDOT":0},{"OBJECT_NAME":"ARIRANG-2 (KOMPSAT-2)","OBJECT_ID":"2006-031A","EPOCH":"2026-04-27T08:09:11.179872","MEAN_MOTION":14.64626314,"ECCENTRICITY":0.00132069,"INCLINATION":97.8315,"RA_OF_ASC_NODE":304.246,"ARG_OF_PERICENTER":231.818,"MEAN_ANOMALY":249.5324,"EPHEMERIS_TYPE":0,"CLASSIFICATION_TYPE":"U","NORAD_CAT_ID":29268,"ELEMENT_SET_NO":999,"REV_AT_EPOCH":5403,"BSTAR":6.5069736e-5,"MEAN_MOTION_DOT":3.01e-6,"MEAN_MOTION_DDOT":0},{"OBJECT_NAME":"LAPAN-TUBSAT","OBJECT_ID":"2007-001A","EPOCH":"2026-04-27T06:41:10.379904","MEAN_MOTION":14.8589639,"ECCENTRICITY":0.0012189,"INCLINATION":98.1348,"RA_OF_ASC_NODE":115.3585,"ARG_OF_PERICENTER":358.4329,"MEAN_ANOMALY":1.6845,"EPHEMERIS_TYPE":0,"CLASSIFICATION_TYPE":"U","NORAD_CAT_ID":29709,"ELEMENT_SET_NO":999,"REV_AT_EPOCH":4359,"BSTAR":9.6842917e-5,"MEAN_MOTION_DOT":7.87e-6,"MEAN_MOTION_DDOT":0},{"OBJECT_NAME":"HAIYANG-1B","OBJECT_ID":"2007-010A","EPOCH":"2026-04-27T05:49:32.958912","MEAN_MOTION":14.31013951,"ECCENTRICITY":0.00134785,"INCLINATION":98.3477,"RA_OF_ASC_NODE":101.071,"ARG_OF_PERICENTER":357.981,"MEAN_ANOMALY":2.1317,"EPHEMERIS_TYPE":0,"CLASSIFICATION_TYPE":"U","NORAD_CAT_ID":31113,"ELEMENT_SET_NO":999,"REV_AT_EPOCH":99334,"BSTAR":5.8836544e-5,"MEAN_MOTION_DOT":1.13e-6,"MEAN_MOTION_DDOT":0},{"OBJECT_NAME":"COSMO-SKYMED 1","OBJECT_ID":"2007-023A","EPOCH":"2026-04-27T06:25:30.635616","MEAN_MOTION":14.96847907,"ECCENTRICITY":0.00015209,"INCLINATION":97.8868,"RA_OF_ASC_NODE":308.7002,"ARG_OF_PERICENTER":100.8957,"MEAN_ANOMALY":259.2435,"EPHEMERIS_TYPE":0,"CLASSIFICATION_TYPE":"U","NORAD_CAT_ID":31598,"ELEMENT_SET_NO":999,"REV_AT_EPOCH":2217,"BSTAR":0.00031434348,"MEAN_MOTION_DOT":3.543e-5,"MEAN_MOTION_DDOT":0},{"OBJECT_NAME":"TERRASAR-X","OBJECT_ID":"2007-026A","EPOCH":"2026-04-26T11:38:34.857888","MEAN_MOTION":15.1914808,"ECCENTRICITY":0.0001614,"INCLINATION":97.4453,"RA_OF_ASC_NODE":124.9297,"ARG_OF_PERICENTER":76.6079,"MEAN_ANOMALY":283.5335,"EPHEMERIS_TYPE":0,"CLASSIFICATION_TYPE":"U","NORAD_CAT_ID":31698,"ELEMENT_SET_NO":999,"REV_AT_EPOCH":4537,"BSTAR":2.3638e-5,"MEAN_MOTION_DOT":4.29e-6,"MEAN_MOTION_DDOT":0}]
