SCD 1                   
1 22490U 93009B   26117.23318450  .00000475  00000+0  79042-4 0  9992
2 22490  24.9681 162.1804 0041771 319.0852  94.0427 14.46097356753735
TECHSAT 1B (GO-32)      
1 25397U 98043D   26116.85706313  .00000065  00000+0  48141-4 0  9991
2 25397  99.0062 108.3254 0001757  42.3066 317.8248 14.24417863444025
SCD 2                   
1 25504U 98060A   26117.16301128  .00000437  00000+0  71196-4 0  9999
2 25504  24.9966  26.8182 0016548 304.2749 207.5522 14.45506063452934
DLR-TUBSAT              
1 25757U 99029B   26117.24547084  .00000108  00000+0  38288-4 0  9997
2 25757  98.6692 111.0770 0014898 141.4495 218.7766 14.52413049425857
TERRA                   
1 25994U 99068A   26117.27198513  .00000431  00000+0  96779-4 0  9993
2 25994  97.9501 168.8266 0003139  53.9282  10.6190 14.61061586402173
MAROC-TUBSAT            
1 27004U 01056D   26117.27951951 -.00000011  00000+0  40491-4 0  9995
2 27004  99.8061 293.1828 0019038 273.4806 266.3524 13.70260262219214
AQUA                    
1 27424U 02022A   26117.28419853  .00000924  00000+0  19381-3 0  9991
2 27424  98.4245  85.5642 0002049  94.5121  10.6715 14.62076657275839
SHIYAN-1 (SY-1)         
1 28220U 04012A   26117.20770030  .00018536  00000+0  59352-3 0  9996
2 28220  97.8706 192.0174 0005913 186.0770 174.0399 15.32432763203288
AURA                    
1 28376U 04026A   26117.24738952  .00000905  00000+0  19332-3 0  9999
2 28376  98.3382  73.2937 0001700  84.8439 275.2956 14.61248172158776
IRS-P5 (CARTOSAT-1)     
1 28649U 05017A   26117.07343090  .00001431  00000+0  15041-3 0  9997
2 28649  97.5349 142.4522 0001074 131.3352 228.7959 14.90914038136201
SINAH 1                 
1 28893U 05043D   26117.27752206  .00000428  00000+0  90708-4 0  9991
2 28893  98.2781 251.3218 0015696  77.4325 282.8632 14.64121753 93078
RESURS-DK 1             
1 29228U 06021A   26117.26423685  .00003076  00000+0  17989-3 0  9997
2 29228  69.9312 111.3487 0003422 338.1087  21.9933 15.12995223 94875
ARIRANG-2 (KOMPSAT-2)   
1 29268U 06031A   26117.33971273  .00000301  00000+0  65070-4 0  9994
2 29268  97.8315 304.2460 0013206 231.8180 249.5324 14.64626314 54034
LAPAN-TUBSAT            
1 29709U 07001A   26117.27859236  .00000787  00000+0  96843-4 0  9999
2 29709  98.1348 115.3585 0012189 358.4329   1.6845 14.85896390 43593
HAIYANG-1B              
1 31113U 07010A   26117.24274258  .00000113  00000+0  58837-4 0  9997
2 31113  98.3477 101.0710 0013478 357.9810   2.1317 14.31013951993345
COSMO-SKYMED 1          
1 31598U 07023A   26117.26771569  .00003543  00000+0  31434-3 0  9990
2 31598  97.8868 308.7002 0001520 100.8957 259.2435 14.96847907 22179
TERRASAR-X              
1 31698U 07026A   26116.48512567  .00000429  00000+0  23638-4 0  9996
2 31698  97.4453 124.9297 0001614  76.6079 283.5335 15.19148080 45377
